[{"OBJECT_NAME":"FLOCK 4G-31","OBJECT_ID":"2025-009AV","EPOCH":"2026-03-09T17:55:44.365728","MEAN_MOTION":15.26963037,"ECCENTRICITY":5.975e-5,"INCLINATION":97.4007,"RA_OF_ASC_NODE":151.027,"ARG_OF_PERICENTER":42.5998,"MEAN_ANOMALY":317.5288,"EPHEMERIS_TYPE":0,"CLASSIFICATION_TYPE":"U","NORAD_CAT_ID":62652,"ELEMENT_SET_NO":999,"REV_AT_EPOCH":6372,"BSTAR":0.00048078603,"MEAN_MOTION_DOT":0.00012662,"MEAN_MOTION_DDOT":0},{"OBJECT_NAME":"STARLINK-36487","OBJECT_ID":"2026-005N","EPOCH":"2026-03-09T21:20:04.180128","MEAN_MOTION":15.27776317,"ECCENTRICITY":0.00037754,"INCLINATION":42.998,"RA_OF_ASC_NODE":237.1463,"ARG_OF_PERICENTER":297.1589,"MEAN_ANOMALY":62.8878,"EPHEMERIS_TYPE":0,"CLASSIFICATION_TYPE":"U","NORAD_CAT_ID":67416,"ELEMENT_SET_NO":999,"REV_AT_EPOCH":872,"BSTAR":-0.0089087085,"MEAN_MOTION_DOT":-0.0023917,"MEAN_MOTION_DDOT":0}]
